{
  "type": "FeatureCollection",
  "features": [
    {
      "type": "Feature",
      "properties": {
        "norad_id": 30153,
        "name": "FENGYUN 1C DEB",
        "group": "fengyun-1c-debris",
        "lat": -51.36803589649282,
        "lon": -7.340774619653861,
        "alt_km": 884.773420535842,
        "timestamp": "2025-12-14T16:47:40.957935+00:00",
        "meta_object_name": "FENGYUN 1C DEB",
        "meta_object_id": "1999-025TJ",
        "meta_epoch": "2025-12-13T22:11:37.697568",
        "meta_mean_motion": 13.78774568,
        "meta_eccentricity": 0.0200719,
        "meta_inclination": 100.4667,
        "meta_ra_of_asc_node": 338.431,
        "meta_arg_of_pericenter": 2.6174,
        "meta_mean_anomaly": 61.679,
        "meta_ephemeris_type": 0,
        "meta_classification_type": "U",
        "meta_norad_cat_id": 30153,
        "meta_element_set_no": 999,
        "meta_rev_at_epoch": 94791,
        "meta_bstar": 0.0015674608,
        "meta_mean_motion_dot": 1.8e-05,
        "meta_mean_motion_ddot": 0,
        "tle_line1": "1 30153U 99025TJ  25347.92474187  .00001800  00000+0  15675-2 0  9994",
        "tle_line2": "2 30153 100.4667 338.4310 0200719   2.6174  61.6790 13.78774568947914"
      },
      "geometry": {
        "type": "Point",
        "coordinates": [
          -7.340774619653861,
          -51.36803589649282
        ]
      }
    },
    {
      "type": "Feature",
      "properties": {
        "norad_id": 30154,
        "name": "FENGYUN 1C DEB",
        "group": "fengyun-1c-debris",
        "lat": -69.52984350419887,
        "lon": -173.1710150436483,
        "alt_km": 876.9589745811836,
        "timestamp": "2025-12-14T16:47:40.957945+00:00",
        "meta_object_name": "FENGYUN 1C DEB",
        "meta_object_id": "1999-025TK",
        "meta_epoch": "2025-12-13T01:37:21.670752",
        "meta_mean_motion": 13.85990784,
        "meta_eccentricity": 0.01829609,
        "meta_inclination": 98.4505,
        "meta_ra_of_asc_node": 28.8232,
        "meta_arg_of_pericenter": 197.8494,
        "meta_mean_anomaly": 192.2775,
        "meta_ephemeris_type": 0,
        "meta_classification_type": "U",
        "meta_norad_cat_id": 30154,
        "meta_element_set_no": 999,
        "meta_rev_at_epoch": 94989,
        "meta_bstar": 0.0022534734,
        "meta_mean_motion_dot": 2.918e-05,
        "meta_mean_motion_ddot": 0,
        "tle_line1": "1 30154U 99025TK  25347.06761193  .00002918  00000+0  22535-2 0  9990",
        "tle_line2": "2 30154  98.4505  28.8232 0182960 197.8494 192.2775 13.85990784949895"
      },
      "geometry": {
        "type": "Point",
        "coordinates": [
          -173.1710150436483,
          -69.52984350419887
        ]
      }
    },
    {
      "type": "Feature",
      "properties": {
        "norad_id": 30155,
        "name": "FENGYUN 1C DEB",
        "group": "fengyun-1c-debris",
        "lat": 24.101156578696333,
        "lon": 57.85231576034546,
        "alt_km": 858.9307511181232,
        "timestamp": "2025-12-14T16:47:40.957955+00:00",
        "meta_object_name": "FENGYUN 1C DEB",
        "meta_object_id": "1999-025TL",
        "meta_epoch": "2025-12-13T21:27:15.858720",
        "meta_mean_motion": 13.73806587,
        "meta_eccentricity": 0.02419071,
        "meta_inclination": 99.7514,
        "meta_ra_of_asc_node": 61.4421,
        "meta_arg_of_pericenter": 340.7973,
        "meta_mean_anomaly": 18.4175,
        "meta_ephemeris_type": 0,
        "meta_classification_type": "U",
        "meta_norad_cat_id": 30155,
        "meta_element_set_no": 999,
        "meta_rev_at_epoch": 93880,
        "meta_bstar": 0.0021621993,
        "meta_mean_motion_dot": 2.452e-05,
        "meta_mean_motion_ddot": 0,
        "tle_line1": "1 30155U 99025TL  25347.89393355  .00002452  00000+0  21622-2 0  9992",
        "tle_line2": "2 30155  99.7514  61.4421 0241907 340.7973  18.4175 13.73806587938807"
      },
      "geometry": {
        "type": "Point",
        "coordinates": [
          57.85231576034546,
          24.101156578696333
        ]
      }
    },
    {
      "type": "Feature",
      "properties": {
        "norad_id": 30156,
        "name": "FENGYUN 1C DEB",
        "group": "fengyun-1c-debris",
        "lat": -31.803263233638678,
        "lon": -38.82155236568975,
        "alt_km": 914.9057076821109,
        "timestamp": "2025-12-14T16:47:40.957965+00:00",
        "meta_object_name": "FENGYUN 1C DEB",
        "meta_object_id": "1999-025TM",
        "meta_epoch": "2025-12-13T22:08:32.373888",
        "meta_mean_motion": 13.80818347,
        "meta_eccentricity": 0.01992792,
        "meta_inclination": 98.9183,
        "meta_ra_of_asc_node": 314.8567,
        "meta_arg_of_pericenter": 259.7154,
        "meta_mean_anomaly": 164.7579,
        "meta_ephemeris_type": 0,
        "meta_classification_type": "U",
        "meta_norad_cat_id": 30156,
        "meta_element_set_no": 999,
        "meta_rev_at_epoch": 94707,
        "meta_bstar": 0.0018211658,
        "meta_mean_motion_dot": 2.186e-05,
        "meta_mean_motion_ddot": 0,
        "tle_line1": "1 30156U 99025TM  25347.92259692  .00002186  00000+0  18212-2 0  9997",
        "tle_line2": "2 30156  98.9183 314.8567 0199279 259.7154 164.7579 13.80818347947078"
      },
      "geometry": {
        "type": "Point",
        "coordinates": [
          -38.82155236568975,
          -31.803263233638678
        ]
      }
    },
    {
      "type": "Feature",
      "properties": {
        "norad_id": 30157,
        "name": "FENGYUN 1C DEB",
        "group": "fengyun-1c-debris",
        "lat": -23.49210501209975,
        "lon": 89.60663059092748,
        "alt_km": 769.599559784434,
        "timestamp": "2025-12-14T16:47:40.957976+00:00",
        "meta_object_name": "FENGYUN 1C DEB",
        "meta_object_id": "1999-025TN",
        "meta_epoch": "2025-12-13T18:21:00.321120",
        "meta_mean_motion": 14.45121525,
        "meta_eccentricity": 0.00370825,
        "meta_inclination": 98.7146,
        "meta_ra_of_asc_node": 84.8248,
        "meta_arg_of_pericenter": 190.2203,
        "meta_mean_anomaly": 323.3872,
        "meta_ephemeris_type": 0,
        "meta_classification_type": "U",
        "meta_norad_cat_id": 30157,
        "meta_element_set_no": 999,
        "meta_rev_at_epoch": 98087,
        "meta_bstar": 0.0024590066,
        "meta_mean_motion_dot": 8.637e-05,
        "meta_mean_motion_ddot": 0,
        "tle_line1": "1 30157U 99025TN  25347.76458705  .00008637  00000+0  24590-2 0  9999",
        "tle_line2": "2 30157  98.7146  84.8248 0037082 190.2203 323.3872 14.45121525980874"
      },
      "geometry": {
        "type": "Point",
        "coordinates": [
          89.60663059092748,
          -23.49210501209975
        ]
      }
    },
    {
      "type": "Feature",
      "properties": {
        "norad_id": 30160,
        "name": "FENGYUN 1C DEB",
        "group": "fengyun-1c-debris",
        "lat": 23.064545074489295,
        "lon": -66.77856791061329,
        "alt_km": 1131.2540185104335,
        "timestamp": "2025-12-14T16:47:40.957986+00:00",
        "meta_object_name": "FENGYUN 1C DEB",
        "meta_object_id": "1999-025TR",
        "meta_epoch": "2025-12-13T19:31:53.465664",
        "meta_mean_motion": 13.4289151,
        "meta_eccentricity": 0.03428345,
        "meta_inclination": 98.8862,
        "meta_ra_of_asc_node": 296.2583,
        "meta_arg_of_pericenter": 125.1026,
        "meta_mean_anomaly": 301.3572,
        "meta_ephemeris_type": 0,
        "meta_classification_type": "U",
        "meta_norad_cat_id": 30160,
        "meta_element_set_no": 999,
        "meta_rev_at_epoch": 92428,
        "meta_bstar": 0.001117475,
        "meta_mean_motion_dot": 8.68e-06,
        "meta_mean_motion_ddot": 0,
        "tle_line1": "1 30160U 99025TR  25347.81381326  .00000868  00000+0  11175-2 0  9996",
        "tle_line2": "2 30160  98.8862 296.2583 0342834 125.1026 301.3572 13.42891510924289"
      },
      "geometry": {
        "type": "Point",
        "coordinates": [
          -66.77856791061329,
          23.064545074489295
        ]
      }
    },
    {
      "type": "Feature",
      "properties": {
        "norad_id": 30161,
        "name": "FENGYUN 1C DEB",
        "group": "fengyun-1c-debris",
        "lat": -5.296921261261283,
        "lon": -22.809010008536024,
        "alt_km": 1117.9905418960034,
        "timestamp": "2025-12-14T16:47:40.957997+00:00",
        "meta_object_name": "FENGYUN 1C DEB",
        "meta_object_id": "1999-025TS",
        "meta_epoch": "2025-12-13T12:58:35.076864",
        "meta_mean_motion": 13.49724151,
        "meta_eccentricity": 0.03282226,
        "meta_inclination": 100.5056,
        "meta_ra_of_asc_node": 334.9825,
        "meta_arg_of_pericenter": 255.952,
        "meta_mean_anomaly": 225.806,
        "meta_ephemeris_type": 0,
        "meta_classification_type": "U",
        "meta_norad_cat_id": 30161,
        "meta_element_set_no": 999,
        "meta_rev_at_epoch": 92570,
        "meta_bstar": 0.0024424055,
        "meta_mean_motion_dot": 2.109e-05,
        "meta_mean_motion_ddot": 0,
        "tle_line1": "1 30161U 99025TS  25347.54068376  .00002109  00000+0  24424-2 0  9995",
        "tle_line2": "2 30161 100.5056 334.9825 0328222 255.9520 225.8060 13.49724151925704"
      },
      "geometry": {
        "type": "Point",
        "coordinates": [
          -22.809010008536024,
          -5.296921261261283
        ]
      }
    }
  ]
}